{
  "type": "FeatureCollection",
  "features": [
    {
      "type": "Feature",
      "properties": {
        "norad_id": 34425,
        "name": "COSMOS 2251 DEB",
        "group": "cosmos-2251-debris",
        "lat": -55.855378362785295,
        "lon": 1.6515510745134292,
        "alt_km": 707.7179958140223,
        "timestamp": "2025-12-27T06:41:31.320072+00:00",
        "meta_object_name": "COSMOS 2251 DEB",
        "meta_object_id": "1993-036RS",
        "meta_epoch": "2025-12-26T11:15:36.344160",
        "meta_mean_motion": 14.62199982,
        "meta_eccentricity": 0.0024045,
        "meta_inclination": 74.0192,
        "meta_ra_of_asc_node": 28.199,
        "meta_arg_of_pericenter": 150.6925,
        "meta_mean_anomaly": 209.5597,
        "meta_ephemeris_type": 0,
        "meta_classification_type": "U",
        "meta_norad_cat_id": 34425,
        "meta_element_set_no": 999,
        "meta_rev_at_epoch": 88941,
        "meta_bstar": 0.00053248,
        "meta_mean_motion_dot": 2.663e-05,
        "meta_mean_motion_ddot": 0,
        "tle_line1": "1 34425U 93036RS  25360.46917065  .00002663  00000+0  53248-3 0  9994",
        "tle_line2": "2 34425  74.0192  28.1990 0024045 150.6925 209.5597 14.62199982889413"
      },
      "geometry": {
        "type": "Point",
        "coordinates": [
          1.6515510745134292,
          -55.855378362785295
        ]
      }
    },
    {
      "type": "Feature",
      "properties": {
        "norad_id": 34429,
        "name": "COSMOS 2251 DEB",
        "group": "cosmos-2251-debris",
        "lat": -7.309491873253919,
        "lon": 134.12858244784965,
        "alt_km": 415.3751712131525,
        "timestamp": "2025-12-27T06:41:31.320082+00:00",
        "meta_object_name": "COSMOS 2251 DEB",
        "meta_object_id": "1993-036RW",
        "meta_epoch": "2025-12-26T10:48:12.272256",
        "meta_mean_motion": 15.47930745,
        "meta_eccentricity": 0.0014469,
        "meta_inclination": 73.9685,
        "meta_ra_of_asc_node": 138.062,
        "meta_arg_of_pericenter": 342.8367,
        "meta_mean_anomaly": 73.0284,
        "meta_ephemeris_type": 0,
        "meta_classification_type": "U",
        "meta_norad_cat_id": 34429,
        "meta_element_set_no": 999,
        "meta_rev_at_epoch": 89660,
        "meta_bstar": 0.0055636,
        "meta_mean_motion_dot": 0.00302726,
        "meta_mean_motion_ddot": 0,
        "tle_line1": "1 34429U 93036RW  25360.45014204  .00302726  00000+0  55636-2 0  9995",
        "tle_line2": "2 34429  73.9685 138.0620 0014469 342.8367  73.0284 15.47930745896607"
      },
      "geometry": {
        "type": "Point",
        "coordinates": [
          134.12858244784965,
          -7.309491873253919
        ]
      }
    },
    {
      "type": "Feature",
      "properties": {
        "norad_id": 34430,
        "name": "COSMOS 2251 DEB",
        "group": "cosmos-2251-debris",
        "lat": -14.781542049722526,
        "lon": -87.790525844238,
        "alt_km": 720.4039020097453,
        "timestamp": "2025-12-27T06:41:31.320092+00:00",
        "meta_object_name": "COSMOS 2251 DEB",
        "meta_object_id": "1993-036RX",
        "meta_epoch": "2025-12-26T20:45:22.396320",
        "meta_mean_motion": 14.39674283,
        "meta_eccentricity": 0.00609563,
        "meta_inclination": 74.0518,
        "meta_ra_of_asc_node": 277.3003,
        "meta_arg_of_pericenter": 343.6903,
        "meta_mean_anomaly": 16.2288,
        "meta_ephemeris_type": 0,
        "meta_classification_type": "U",
        "meta_norad_cat_id": 34430,
        "meta_element_set_no": 999,
        "meta_rev_at_epoch": 88158,
        "meta_bstar": 0.00047321315,
        "meta_mean_motion_dot": 1.487e-05,
        "meta_mean_motion_ddot": 0,
        "tle_line1": "1 34430U 93036RX  25360.86484255  .00001487  00000+0  47321-3 0  9992",
        "tle_line2": "2 34430  74.0518 277.3003 0060956 343.6903  16.2288 14.39674283881581"
      },
      "geometry": {
        "type": "Point",
        "coordinates": [
          -87.790525844238,
          -14.781542049722526
        ]
      }
    },
    {
      "type": "Feature",
      "properties": {
        "norad_id": 34431,
        "name": "COSMOS 2251 DEB",
        "group": "cosmos-2251-debris",
        "lat": 36.2471187235388,
        "lon": 160.96536406159524,
        "alt_km": 794.6951654507257,
        "timestamp": "2025-12-27T06:41:31.320102+00:00",
        "meta_object_name": "COSMOS 2251 DEB",
        "meta_object_id": "1993-036RY",
        "meta_epoch": "2025-12-26T18:45:05.506272",
        "meta_mean_motion": 14.28823679,
        "meta_eccentricity": 0.00676145,
        "meta_inclination": 74.0742,
        "meta_ra_of_asc_node": 149.7823,
        "meta_arg_of_pericenter": 131.7166,
        "meta_mean_anomaly": 228.9795,
        "meta_ephemeris_type": 0,
        "meta_classification_type": "U",
        "meta_norad_cat_id": 34431,
        "meta_element_set_no": 999,
        "meta_rev_at_epoch": 87343,
        "meta_bstar": 0.00079020531,
        "meta_mean_motion_dot": 2.017e-05,
        "meta_mean_motion_ddot": 0,
        "tle_line1": "1 34431U 93036RY  25360.78131373  .00002017  00000+0  79021-3 0  9996",
        "tle_line2": "2 34431  74.0742 149.7823 0067614 131.7166 228.9795 14.28823679873431"
      },
      "geometry": {
        "type": "Point",
        "coordinates": [
          160.96536406159524,
          36.2471187235388
        ]
      }
    },
    {
      "type": "Feature",
      "properties": {
        "norad_id": 34432,
        "name": "COSMOS 2251 DEB",
        "group": "cosmos-2251-debris",
        "lat": 45.42673277998838,
        "lon": -120.4199330591573,
        "alt_km": 759.5919303761366,
        "timestamp": "2025-12-27T06:41:31.320112+00:00",
        "meta_object_name": "COSMOS 2251 DEB",
        "meta_object_id": "1993-036RZ",
        "meta_epoch": "2025-12-26T15:14:50.828928",
        "meta_mean_motion": 14.02963413,
        "meta_eccentricity": 0.0181171,
        "meta_inclination": 73.8285,
        "meta_ra_of_asc_node": 77.8425,
        "meta_arg_of_pericenter": 158.3242,
        "meta_mean_anomaly": 325.6108,
        "meta_ephemeris_type": 0,
        "meta_classification_type": "U",
        "meta_norad_cat_id": 34432,
        "meta_element_set_no": 999,
        "meta_rev_at_epoch": 85879,
        "meta_bstar": 0.0011584,
        "meta_mean_motion_dot": 2.053e-05,
        "meta_mean_motion_ddot": 0,
        "tle_line1": "1 34432U 93036RZ  25360.63531052  .00002053  00000+0  11584-2 0  9998",
        "tle_line2": "2 34432  73.8285  77.8425 0181171 158.3242 325.6108 14.02963413858793"
      },
      "geometry": {
        "type": "Point",
        "coordinates": [
          -120.4199330591573,
          45.42673277998838
        ]
      }
    },
    {
      "type": "Feature",
      "properties": {
        "norad_id": 34433,
        "name": "COSMOS 2251 DEB",
        "group": "cosmos-2251-debris",
        "lat": -39.87619571854107,
        "lon": 115.32841442972163,
        "alt_km": 789.6062556362967,
        "timestamp": "2025-12-27T06:41:31.320122+00:00",
        "meta_object_name": "COSMOS 2251 DEB",
        "meta_object_id": "1993-036SA",
        "meta_epoch": "2025-12-25T19:12:11.035008",
        "meta_mean_motion": 14.12911954,
        "meta_eccentricity": 0.0152849,
        "meta_inclination": 74.01,
        "meta_ra_of_asc_node": 131.8065,
        "meta_arg_of_pericenter": 267.1359,
        "meta_mean_anomaly": 91.228,
        "meta_ephemeris_type": 0,
        "meta_classification_type": "U",
        "meta_norad_cat_id": 34433,
        "meta_element_set_no": 999,
        "meta_rev_at_epoch": 86134,
        "meta_bstar": 0.001379,
        "meta_mean_motion_dot": 2.843e-05,
        "meta_mean_motion_ddot": 0,
        "tle_line1": "1 34433U 93036SA  25359.80012772  .00002843  00000+0  13790-2 0  9997",
        "tle_line2": "2 34433  74.0100 131.8065 0152849 267.1359  91.2280 14.12911954861348"
      },
      "geometry": {
        "type": "Point",
        "coordinates": [
          115.32841442972163,
          -39.87619571854107
        ]
      }
    },
    {
      "type": "Feature",
      "properties": {
        "norad_id": 34434,
        "name": "COSMOS 2251 DEB",
        "group": "cosmos-2251-debris",
        "lat": 71.67123188984284,
        "lon": 44.999289157082586,
        "alt_km": 762.8692405864585,
        "timestamp": "2025-12-27T06:41:31.320132+00:00",
        "meta_object_name": "COSMOS 2251 DEB",
        "meta_object_id": "1993-036SB",
        "meta_epoch": "2025-12-26T18:31:21.199296",
        "meta_mean_motion": 13.89893258,
        "meta_eccentricity": 0.02733901,
        "meta_inclination": 74.0626,
        "meta_ra_of_asc_node": 346.2578,
        "meta_arg_of_pericenter": 120.134,
        "meta_mean_anomaly": 306.4729,
        "meta_ephemeris_type": 0,
        "meta_classification_type": "U",
        "meta_norad_cat_id": 34434,
        "meta_element_set_no": 999,
        "meta_rev_at_epoch": 84161,
        "meta_bstar": 0.0023071085,
        "meta_mean_motion_dot": 3.817e-05,
        "meta_mean_motion_ddot": 0,
        "tle_line1": "1 34434U 93036SB  25360.77177314  .00003817  00000+0  23071-2 0  9995",
        "tle_line2": "2 34434  74.0626 346.2578 0273390 120.1340 306.4729 13.89893258841612"
      },
      "geometry": {
        "type": "Point",
        "coordinates": [
          44.999289157082586,
          71.67123188984284
        ]
      }
    }
  ]
}